# From MPEC 2023-W29
534405 (534405),e,0.9436,106.4726,262.6041,43.28267,0.0034613,0.02161916,47.6778,10/17.0/2024,2000,H 6.07,0.15
# From MPEC 2024-D45
534625 (534625),e,1.9455,16.6679,219.7539,44.75987,0.0032913,0.04338741,205.1202,10/17.0/2024,2000,H 5.55,0.15
# From MPO701577
534626 (534626),e,3.8757,81.8106,329.8017,48.44978,0.0029226,0.27264936,15.4498,10/17.0/2024,2000,H 6.66,0.15
# From MPO701577
534631 (534631),e,15.9468,15.2184,3.8477,40.06875,0.0038859,0.34173766,16.3099,10/17.0/2024,2000,H 8.89,0.15
# From MPO701584
535018 (535018),e,2.9991,120.1452,338.3599,43.98648,0.0033785,0.05795408,66.3575,10/17.0/2024,2000,H 6.08,0.15
# From MPO745323
535019 (535019),e,13.8838,125.3972,3.4852,36.36446,0.0044946,0.09149091,41.6905,10/17.0/2024,2000,H 7.25,0.15
# From MPEC 2023-X62
535020 (535020),e,21.3854,129.7825,185.1292,42.88114,0.0035100,0.07900807,110.5548,10/17.0/2024,2000,H 5.84,0.15
# From MPEC 2023-F48
535021 (535021),e,15.1434,184.2206,46.8806,41.48203,0.0036890,0.12708693,289.4256,10/17.0/2024,2000,H 6.07,0.15
# From MPEC 2024-GD4
535022 (535022),e,7.1006,276.5785,311.4991,42.23514,0.0035908,0.05040138,304.5473,10/17.0/2024,2000,H 6.24,0.15
# From MPEC 2024-B79
535023 (535023),e,3.7527,108.9752,48.3807,43.91114,0.0033872,0.09146982,13.1710,10/17.0/2024,2000,H 6.26,0.15
# From MPEC 2023-Y63
535024 (535024),e,26.3552,51.8180,64.9283,39.71457,0.0039380,0.34920551,333.5530,10/17.0/2024,2000,H 7.27,0.15
# From MPO701584
535025 (535025),e,12.2539,182.2828,226.8898,48.00692,0.0029631,0.26034034,16.5515,10/17.0/2024,2000,H 7.23,0.15
# From MPO731855
535026 (535026),e,25.3422,205.5299,198.8437,47.09670,0.0030494,0.18214643,20.4644,10/17.0/2024,2000,H 6.74,0.15
# From MPEC 2024-J18
535027 (535027),e,11.4752,298.8166,316.0651,43.95416,0.0033822,0.17041415,288.4177,10/17.0/2024,2000,H 5.84,0.15
# From MPO701584
535028 (535028),e,2.1546,104.4941,330.6948,45.35498,0.0032268,0.04250328,91.5799,10/17.0/2024,2000,H 5.96,0.15
# From MPO723245
535029 (535029),e,17.4844,167.3987,179.3056,39.50813,0.0039689,0.21527341,71.9504,10/17.0/2024,2000,H 6.70,0.15
# From MPO701584
535032 (535032),e,8.1955,73.9403,301.5622,39.81162,0.0039236,0.18251447,47.4439,10/17.0/2024,2000,H 7.39,0.15
# From MPO780493
535167 (535167),e,7.3164,223.7527,174.8354,39.77198,0.0039295,0.19793424,21.4969,10/17.0/2024,2000,H 7.24,0.15
# From MPO701587
535168 (535168),e,4.7480,258.3488,226.7235,39.73458,0.0039351,0.17992209,334.2069,10/17.0/2024,2000,H 7.17,0.15
# From MPEC 2023-D68
535229 (535229),e,19.0415,303.7972,108.8598,39.60603,0.0039542,0.20066539,48.7942,10/17.0/2024,2000,H 7.23,0.15
# From MPO731857
535231 (535231),e,7.2883,12.2757,48.4245,39.60710,0.0039541,0.20157274,57.0026,10/17.0/2024,2000,H 6.83,0.15
# From MPO701593
535466 (535466),e,16.9368,65.7939,76.8243,42.78183,0.0035222,0.21737489,19.0689,10/17.0/2024,2000,H 6.89,0.15
# From MPEC 2024-B79
535986 (535986),e,22.5113,312.2302,202.9733,46.53941,0.0031044,0.22388030,345.0466,10/17.0/2024,2000,H 6.85,0.15
# From MPO701602
535987 (535987),e,7.6791,340.8206,234.4982,46.43937,0.0031144,0.23078402,327.3332,10/17.0/2024,2000,H 6.85,0.15
# From MPEC 2024-B79
535989 (535989),e,1.7893,98.2759,288.1036,44.89514,0.0032765,0.03732288,115.2140,10/17.0/2024,2000,H 5.72,0.15
# From MPEC 2024-B79
535990 (535990),e,9.2558,35.6232,98.2490,44.98643,0.0032665,0.15528031,11.8815,10/17.0/2024,2000,H 6.72,0.15
# From MPEC 2024-G02
535992 (535992),e,19.1866,290.2817,266.1119,39.08983,0.0040328,0.31950173,352.8716,10/17.0/2024,2000,H 7.72,0.15
# From MPEC 2024-CG3
536287 (536287),e,19.0274,335.6888,206.4639,41.64562,0.0036673,0.13849482,333.1801,10/17.0/2024,2000,H 6.51,0.15
# From MPO844547
536919 (536919),e,5.3628,116.7840,179.1449,45.62886,0.0031978,0.12467070,296.5747,10/17.0/2024,2000,H 5.88,0.15
# From MPEC 2024-JA9
536920 (536920),e,17.1533,103.3419,39.8860,42.37387,0.0035732,0.03136826,83.8367,10/17.0/2024,2000,H 6.23,0.15
# From MPO745323
536921 (536921),e,20.1422,152.8420,30.6294,39.95855,0.0039020,0.12769623,39.3808,10/17.0/2024,2000,H 7.15,0.15
# From MPEC 2023-F48
536922 (536922),e,10.0368,130.1284,32.9386,43.45218,0.0034410,0.21531783,38.0798,10/17.0/2024,2000,H 6.84,0.15
# From MPEC 2024-H69
538690 (538690),e,4.2113,269.7440,168.7177,46.42579,0.0031158,0.16420795,96.5401,10/17.0/2024,2000,H 5.84,0.15
# From MPO701653
538691 (538691),e,6.2982,290.0575,35.1186,43.20954,0.0034700,0.07014649,235.7495,10/17.0/2024,2000,H 6.12,0.15
# From MPEC 2024-C06
541132 Leleakuhonua,e,11.6753,301.0763,117.7506,1375,0.0000193,0.95275021,359.6224,10/17.0/2024,2000,H 5.57,0.15
# From MPEC 2024-CA7
543375 (543375),e,11.1445,323.0752,80.3959,41.92169,0.0036312,0.05027537,97.9870,10/17.0/2024,2000,H 5.78,0.15
# From MPEC 2023-FL5
543376 (543376),e,25.4515,239.4962,287.1952,104.2397,0.0009261,0.62450748,359.5781,10/17.0/2024,2000,H 5.98,0.15
# From MPO844573
543435 (543435),e,20.2135,67.3202,130.8725,39.03381,0.0040415,0.25403298,25.0689,10/17.0/2024,2000,H 7.00,0.15
# From MPO844573
543454 (543454),e,27.9565,57.0589,82.3288,42.93574,0.0035033,0.15579428,74.4509,10/17.0/2024,2000,H 4.96,0.15
# From MPO780543
543733 (543733),e,16.6465,211.1531,185.3156,46.66127,0.0030922,0.19261440,21.0938,10/17.0/2024,2000,H 6.40,0.15
# From MPEC 2024-F14
545361 (545361),e,8.6477,283.8491,254.5386,42.46744,0.0035614,0.10995069,34.6858,10/17.0/2024,2000,H 5.82,0.15
# From MPO780563
547616 (547616),e,17.5632,199.4974,235.0512,39.86123,0.0039163,0.26945166,346.2036,10/17.0/2024,2000,H 7.71,0.15
# From MPEC 2023-X62
547617 (547617),e,15.5344,58.3174,91.0085,43.75254,0.0034056,0.07431308,286.8362,10/17.0/2024,2000,H 5.94,0.15
# From MPO701827
547893 (547893),e,28.1868,161.7953,311.3460,41.09298,0.0037416,0.10092272,343.2945,10/17.0/2024,2000,H 5.75,0.15
# From MPO701839
548504 (548504),e,2.8274,65.1895,47.2085,43.20208,0.0034709,0.00068067,79.4753,10/17.0/2024,2000,H 6.33,0.15
# From MPO844597
552555 (552555),e,21.3004,212.6160,323.5152,97.22422,0.0010281,0.58904904,6.9482,10/17.0/2024,2000,H 5.20,0.15
# From MPO701917
552679 (552679),e,12.2457,129.1509,164.9854,39.18617,0.0040180,0.23703925,327.3945,10/17.0/2024,2000,H 7.18,0.15
# From MPEC 2024-G02
553138 (553138),e,9.3228,207.1804,350.1593,45.67312,0.0031931,0.17695335,349.9201,10/17.0/2024,2000,H 6.39,0.15
# From MPEC 2024-H99
553893 (553893),e,7.8625,65.8197,54.7313,45.83714,0.0031760,0.14519230,37.4412,10/17.0/2024,2000,H 5.57,0.15
# From MPO701940
553898 (553898),e,7.2639,173.2742,4.7392,44.68911,0.0032991,0.14686164,1.8807,10/17.0/2024,2000,H 6.65,0.15
# From MPO745323
554102 (554102),e,11.6479,161.9031,124.2408,47.39030,0.0030211,0.23381220,328.4392,10/17.0/2024,2000,H 6.43,0.15
# From MPEC 2023-D68
554780 (554780),e,2.5911,189.8802,306.9577,46.52176,0.0031061,0.16349549,10.4911,10/17.0/2024,2000,H 6.82,0.15
# From MPEC 2023-Y82
554856 (554856),e,8.6357,150.3983,10.7678,47.92794,0.0029704,0.11444217,346.8068,10/17.0/2024,2000,H 6.17,0.15
# From MPO701961
554982 (554982),e,3.2145,358.4148,286.5115,42.45679,0.0035627,0.03238027,321.2748,10/17.0/2024,2000,H 6.33,0.15
# From MPEC 2024-O34
555426 (555426),e,30.2119,351.8040,185.8669,40.32024,0.0038496,0.10613316,10.0885,10/17.0/2024,2000,H 7.19,0.15
# From MPEC 2023-D68
555591 (555591),e,28.0983,321.1059,157.6686,45.45012,0.0032166,0.23182434,17.4526,10/17.0/2024,2000,H 7.39,0.15
# From MPEC 2024-E23
555632 (555632),e,26.9907,274.3219,263.5087,42.78986,0.0035212,0.13859162,346.4462,10/17.0/2024,2000,H 4.95,0.15
# From MPEC 2024-JM0
555678 (555678),e,7.9494,20.3181,49.1313,43.77464,0.0034031,0.17851405,98.3083,10/17.0/2024,2000,H 5.31,0.15
# From MPEC 2024-F14
555756 (555756),e,4.5301,119.3173,199.5734,36.33233,0.0045005,0.15830859,260.6110,10/17.0/2024,2000,H 6.82,0.15
# From MPEC 2023-FA2
555757 (555757),e,10.7754,67.2086,273.1026,44.66832,0.0033014,0.09215594,229.0142,10/17.0/2024,2000,H 5.67,0.15
# From MPO701976
555758 (555758),e,24.2018,202.0255,35.4175,39.19733,0.0040162,0.25353385,358.9020,10/17.0/2024,2000,H 7.66,0.15
# From MPO844602
555820 (555820),e,18.9835,140.5799,89.5625,41.15099,0.0037337,0.09202664,349.3514,10/17.0/2024,2000,H 5.37,0.15
# From MPO844602
555915 (555915),e,14.5395,97.0690,129.4798,40.45930,0.0038298,0.13377680,4.0850,10/17.0/2024,2000,H 5.37,0.15
# From MPEC 2024-F74
555916 (555916),e,26.1501,204.2977,57.6551,39.16944,0.0040205,0.28269284,352.1106,10/17.0/2024,2000,H 7.78,0.15
# From MPO844603
556067 (556067),e,19.9912,157.0474,154.3513,39.19461,0.0040167,0.19618655,321.4136,10/17.0/2024,2000,H 6.33,0.15
# From MPO844603
556068 (556068),e,15.4038,119.1733,298.9973,39.33535,0.0039951,0.09496542,256.8181,10/17.0/2024,2000,H 4.97,0.15
# From MPO844603
556130 (556130),e,16.8199,160.5383,130.1113,39.11080,0.0040296,0.25579153,334.6250,10/17.0/2024,2000,H 7.32,0.15
# From MPO844603
556416 (556416),e,3.9347,308.9068,258.6184,46.25163,0.0031334,0.11483725,80.9876,10/17.0/2024,2000,H 4.70,0.15
# From MPEC 2024-CA7
558224 (558224),e,18.3626,84.4410,75.8956,44.14724,0.0033601,0.15489533,347.7936,10/17.0/2024,2000,H 6.51,0.15
# From MPEC 2024-JA9
559178 (559178),e,8.8315,262.3536,1.5826,36.28937,0.0045085,0.11879243,299.3650,10/17.0/2024,2000,H 6.43,0.15
# From MPO702040
559179 (559179),e,9.9195,78.8414,43.7872,43.52444,0.0034325,0.11881332,52.5735,10/17.0/2024,2000,H 6.60,0.15
# From MPO844606
559180 (559180),e,8.0962,101.5288,49.7289,43.34506,0.0034538,0.04898742,66.0832,10/17.0/2024,2000,H 5.88,0.15
# From MPEC 2024-J18
559181 (559181),e,28.2539,209.9365,53.7179,42.66735,0.0035364,0.17009188,294.5017,10/17.0/2024,2000,H 5.50,0.15
# From MPO844606
559182 (559182),e,11.4186,44.0311,300.6858,46.68918,0.0030894,0.18617184,274.1598,10/17.0/2024,2000,H 4.72,0.15
# From MPO844607
560039 (560039),e,24.0285,152.0431,97.7415,39.15653,0.0040225,0.32447772,352.4907,10/17.0/2024,2000,H 7.39,0.15
# From MPEC 2024-J40
560552 (560552),e,16.3801,283.5743,233.5545,44.16630,0.0033579,0.14260142,33.2615,10/17.0/2024,2000,H 6.34,0.15
# From MPEC 2024-D82
